NORAD_CAT_ID,OBJECT_NAME,OBJECT_TYPE,EPOCH,MEAN_MOTION,ECCENTRICITY,INCLINATION,RA_OF_ASC_NODE,ARG_OF_PERICENTER,MEAN_ANOMALY,BSTAR,MEAN_MOTION_DOT,MEAN_MOTION_DDOT,TLE_LINE0,TLE_LINE1,TLE_LINE2,SEMIMAJOR_AXIS,PERIOD,APOGEE,PERIGEE,DECAYED
52830.0,STARLINK-4091,PAYLOAD,2023-02-14 15:19:54,15.08808731,9.51e-05,53.2184,17.7344,67.8599,292.2494,0.0014616,0.0002303,0.0,0 STARLINK-4091,1 52830U 22062A   23045.63882085  .00023030  00000-0  14616-2 0  9992,2 52830  53.2184  17.7344 0000951  67.8599 292.2494 15.08808731 37348,6917.976,95.44,540.499,539.183,0.0
52830.0,STARLINK-4091,PAYLOAD,2023-02-15 05:38:22,15.08861689,9.38e-05,53.2183,15.0579,79.2678,280.842,0.0029461,0.00046939,0.0,0 STARLINK-4091,1 52830U 22062A   23046.23498380  .00046939  00000-0  29461-2 0  9997,2 52830  53.2183  15.0579 0000938  79.2678 280.8420 15.08861689 37431,6917.814,95.436,540.328,539.03,0.0
52830.0,STARLINK-4091,PAYLOAD,2023-02-15 21:32:13,15.08866104,0.0001074,53.2187,12.0844,92.6076,267.5039,0.0012601,0.00019838,0.0,0 STARLINK-4091,1 52830U 22062A   23046.89737907  .00019838  00000-0  12601-2 0  9996,2 52830  53.2187  12.0844 0001074  92.6076 267.5039 15.08866104 37536,6917.801,95.436,540.409,538.923,0.0
52830.0,STARLINK-4091,PAYLOAD,2023-02-16 03:53:45,15.088761,0.0001132,53.2188,10.8971,74.9895,285.1222,0.0012535,0.00019737,0.0,0 STARLINK-4091,1 52830U 22062A   23047.16233374  .00019737  00000-0  12535-2 0  9990,2 52830  53.2188  10.8971 0001132  74.9895 285.1222 15.08876100 37077,6917.77,95.435,540.418,538.852,0.0
52830.0,STARLINK-4091,PAYLOAD,2023-02-16 15:01:27,15.08874399,0.0001363,53.2182,8.8128,64.2755,295.8378,0.0011904,0.00018726,0.0,0 STARLINK-4091,1 52830U 22062A   23047.62601099  .00018726  00000-0  11904-2 0  9990,2 52830  53.2182   8.8128 0001363  64.2755 295.8378 15.08874399 37646,6917.775,95.435,540.583,538.697,0.0
52830.0,STARLINK-4091,PAYLOAD,2023-02-17 06:55:20,15.08821422,0.0001606,53.2196,5.8375,86.0927,274.0249,0.0018324,0.0002898,0.0,0 STARLINK-4091,1 52830U 22062A   23048.28842745  .00028980  00000-0  18324-2 0  9994,2 52830  53.2196   5.8375 0001606  86.0927 274.0249 15.08821422 37741,6917.937,95.439,540.913,538.691,0.0
52830.0,STARLINK-4091,PAYLOAD,2023-02-18 05:10:45,15.08833441,0.0001469,53.2193,1.6727,91.8195,268.2966,0.0010184,0.00015954,0.0,0 STARLINK-4091,1 52830U 22062A   23049.21580049  .00015954  00000-0  10184-2 0  9997,2 52830  53.2193   1.6727 0001469  91.8195 268.2966 15.08833441 37881,6917.9,95.438,540.782,538.749,0.0
52830.0,STARLINK-4091,PAYLOAD,2023-02-18 06:46:08,15.08827335,0.0001742,53.2202,1.3751,103.9006,256.218,0.00067285,0.00010433,0.0,0 STARLINK-4091,1 52830U 22062A   23049.28204128  .00010433  00000-0  67285-3 0  9997,2 52830  53.2202   1.3751 0001742 103.9006 256.2180 15.08827335 37392,6917.919,95.438,540.989,538.579,0.0
52830.0,STARLINK-4091,PAYLOAD,2023-02-19 03:26:08,15.08873245,0.0001434,53.2202,357.5128,81.3856,278.7298,0.0011202,0.00017601,0.0,0 STARLINK-4091,1 52830U 22062A   23050.14314950  .00017601  00000-0  11202-2 0  9990,2 52830  53.2202 357.5128 0001434  81.3856 278.7298 15.08873245 38027,6917.779,95.435,540.636,538.652,0.0
52830.0,STARLINK-4091,PAYLOAD,2023-02-19 12:58:26,15.08863087,0.0001528,53.2193,355.7268,81.1593,278.9573,0.00037593,5.704e-05,0.0,0 STARLINK-4091,1 52830U 22062A   23050.54058393  .00005704  00000-0  37593-3 0  9993,2 52830  53.2193 355.7268 0001528  81.1593 278.9573 15.08863087 38088,6917.81,95.436,540.732,538.618,0.0
52830.0,STARLINK-4091,PAYLOAD,2023-02-20 00:06:08,15.08851621,0.0001073,53.2182,353.6485,99.4023,260.7091,-2.3155e-05,-6.56e-06,0.0,0 STARLINK-4091,1 52830U 22062A   23051.00426260 -.00000656  00000-0 -23155-4 0  9990,2 52830  53.2182 353.6485 0001073  99.4023 260.7091 15.08851621 38152,6917.845,95.437,540.452,538.968,0.0
52830.0,STARLINK-4091,PAYLOAD,2023-02-20 12:49:13,15.08851087,0.0001864,53.2188,351.2695,81.3948,278.7255,0.0011649,0.00018306,0.0,0 STARLINK-4091,1 52830U 22062A   23051.53418726  .00018306  00000-0  11649-2 0  9998,2 52830  53.2188 351.2695 0001864  81.3948 278.7255 15.08851087 37739,6917.847,95.437,541.001,538.422,0.0
52830.0,STARLINK-4091,PAYLOAD,2023-02-20 23:56:55,15.08835859,0.0001075,53.219,349.1882,82.197,277.9144,0.00088734,0.00013861,0.0,0 STARLINK-4091,1 52830U 22062A   23051.99786780  .00013861  00000-0  88734-3 0  9997,2 52830  53.2190 349.1882 0001075  82.1970 277.9144 15.08835859 38305,6917.893,95.438,540.502,539.014,0.0
52830.0,STARLINK-4091,PAYLOAD,2023-02-21 12:40:00,15.08852545,0.0001023,53.2187,346.8078,69.2453,290.8649,0.0013076,0.00020591,0.0,0 STARLINK-4091,1 52830U 22062A   23052.52778671  .00020591  00000-0  13076-2 0  9991,2 52830  53.2187 346.8078 0001023  69.2453 290.8649 15.08852545 37884,6917.842,95.437,540.415,538.999,0.0
52830.0,STARLINK-4091,PAYLOAD,2023-02-22 02:58:28,15.08851262,0.0001215,53.2186,344.1335,74.9157,285.1969,0.00053833,8.293e-05,0.0,0 STARLINK-4091,1 52830U 22062A   23053.12394583  .00008293  00000-0  53833-3 0  9995,2 52830  53.2186 344.1335 0001215  74.9157 285.1969 15.08851262 38470,6917.846,95.437,540.551,538.87,0.0
52830.0,STARLINK-4091,PAYLOAD,2023-02-22 18:52:21,15.08829728,0.0001107,53.2184,341.1604,84.3023,275.8095,-3.5502e-05,-8.53e-06,0.0,0 STARLINK-4091,1 52830U 22062A   23053.78635460 -.00000853  00000-0 -35502-4 0  9999,2 52830  53.2184 341.1604 0001107  84.3023 275.8095 15.08829728 38570,6917.912,95.438,540.543,539.011,0.0
52830.0,STARLINK-4091,PAYLOAD,2023-02-23 04:24:40,15.08833607,0.0001337,53.2177,339.3752,87.4126,272.7019,0.00024409,3.598e-05,0.0,0 STARLINK-4091,1 52830U 22062A   23054.18379867  .00003598  00000-0  24409-3 0  9990,2 52830  53.2177 339.3752 0001337  87.4126 272.7019 15.08833607 38133,6917.9,95.438,540.69,538.84,0.0
52830.0,STARLINK-4091,PAYLOAD,2023-02-24 01:04:40,15.08866797,0.0001296,53.217,335.5092,83.9977,276.1163,0.0011213,0.00017616,0.0,0 STARLINK-4091,1 52830U 22062A   23055.04491176  .00017616  00000-0  11213-2 0  9998,2 52830  53.2170 335.5092 0001296  83.9977 276.1163 15.08866797 38763,6917.798,95.436,540.56,538.767,0.0
52830.0,STARLINK-4091,PAYLOAD,2023-02-24 18:33:54,15.08858708,0.000157,53.2175,332.2386,79.8802,280.2367,0.00034042,5.137e-05,0.0,0 STARLINK-4091,1 52830U 22062A   23055.77354885  .00005137  00000-0  34042-3 0  9994,2 52830  53.2175 332.2386 0001570  79.8802 280.2367 15.08858708 38376,6917.823,95.436,540.774,538.602,0.0
52830.0,STARLINK-4091,PAYLOAD,2023-02-24 23:20:04,15.08848004,0.0001279,53.2165,331.3454,87.3564,272.7574,4.213e-05,3.83e-06,0.0,0 STARLINK-4091,1 52830U 22062A   23055.97226899  .00000383  00000-0  42130-4 0  9995,2 52830  53.2165 331.3454 0001279  87.3564 272.7574 15.08848004 38909,6917.856,95.437,540.606,538.836,0.0
52830.0,STARLINK-4091,PAYLOAD,2023-02-25 04:06:13,15.08846486,0.0001484,53.2176,330.4535,81.6514,278.4647,4.5483e-05,4.36e-06,0.0,0 STARLINK-4091,1 52830U 22062A   23056.17099074  .00000436  00000-0  45483-4 0  9994,2 52830  53.2176 330.4535 0001484  81.6514 278.4647 15.08846486 38435,6917.861,95.437,540.752,538.699,0.0
52830.0,STARLINK-4091,PAYLOAD,2023-02-26 02:21:37,15.08850533,0.0001441,53.2179,326.2926,92.7403,267.3754,0.0001005,1.312e-05,0.0,0 STARLINK-4091,1 52830U 22062A   23057.09834531  .00001312  00000-0  10050-3 0  9996,2 52830  53.2179 326.2926 0001441  92.7403 267.3754 15.08850533 39073,6917.848,95.437,540.71,538.716,0.0
52830.0,STARLINK-4091,PAYLOAD,2023-02-26 05:32:23,15.08860404,0.0001367,53.2175,325.6967,93.4931,266.6218,0.00035411,5.355e-05,0.0,0 STARLINK-4091,1 52830U 22062A   23057.23082180  .00005355  00000-0  35411-3 0  9996,2 52830  53.2175 325.6967 0001367  93.4931 266.6218 15.08860404 39095,6917.818,95.436,540.629,538.737,0.0
52830.0,STARLINK-4091,PAYLOAD,2023-02-26 18:15:28,15.0885469,0.0001889,53.2177,323.3198,90.4784,269.6424,0.00043488,6.643e-05,0.0,0 STARLINK-4091,1 52830U 22062A   23057.76075057  .00006643  00000-0  43488-3 0  9993,2 52830  53.2177 323.3198 0001889  90.4784 269.6424 15.08854690 39171,6917.835,95.437,541.007,538.394,0.0
52830.0,STARLINK-4091,PAYLOAD,2023-02-27 03:47:46,15.08885333,0.0001321,53.2173,321.5341,91.7535,268.3609,0.00188,0.00029796,0.0,0 STARLINK-4091,1 52830U 22062A   23058.15817806  .00029796  00000-0  18800-2 0  9996,2 52830  53.2173 321.5341 0001321  91.7535 268.3609 15.08885333 39232,6917.742,95.435,540.521,538.693,0.0
52830.0,STARLINK-4091,PAYLOAD,2023-02-27 19:41:37,15.088694,5.77e-05,53.2169,318.5605,78.1307,281.975,0.0017684,0.00027991,0.0,0 STARLINK-4091,1 52830U 22062A   23058.82057518  .00027991  00000-0  17684-2 0  9990,2 52830  53.2169 318.5605 0000577  78.1307 281.9750 15.08869400 38834,6917.791,95.436,540.055,539.256,0.0
52830.0,STARLINK-4091,PAYLOAD,2023-02-28 03:38:32,15.08908227,0.0001209,53.2167,317.0733,106.2352,253.8774,0.003068,0.0004897,0.0,0 STARLINK-4091,1 52830U 22062A   23059.15176324  .00048970  00000-0  30680-2 0  9995,2 52830  53.2167 317.0733 0001209 106.2352 253.8774 15.08908227 39380,6917.672,95.433,540.373,538.701,0.0
52830.0,STARLINK-4091,PAYLOAD,2023-02-28 16:21:38,15.08817546,0.0001564,53.217,314.6943,134.4555,225.6565,-0.00043488,-7.198e-05,0.0,0 STARLINK-4091,1 52830U 22062A   23059.68169762 -.00007198  00000-0 -43488-3 0  9991,2 52830  53.2170 314.6943 0001564 134.4555 225.6565 15.08817546 39469,6917.949,95.439,540.896,538.732,0.0
52830.0,STARLINK-4091,PAYLOAD,2023-02-28 21:07:48,15.08791221,0.0001606,53.2164,313.8011,142.2602,217.8503,-6.768e-05,-1.363e-05,0.0,0 STARLINK-4091,1 52830U 22062A   23059.88042780 -.00001363  00000-0 -67680-4 0  9992,2 52830  53.2164 313.8011 0001606 142.2602 217.8503 15.08791221 38999,6918.029,95.441,541.006,538.783,0.0
52830.0,STARLINK-4091,PAYLOAD,2023-02-28 22:43:12,15.08796304,9.04e-05,53.2169,313.5053,135.3191,224.7874,-0.00036218,-6.04e-05,0.0,0 STARLINK-4091,1 52830U 22062A   23059.94666962 -.00006040  00000-0 -36218-3 0  9992,2 52830  53.2169 313.5053 0000904 135.3191 224.7874 15.08796304 39506,6918.014,95.44,540.504,539.254,0.0
